GLOBALSTAR M045         
1 25676U 99019A   25249.25846793 -.00000065  00000+0  25225-3 0  9990
2 25676  51.9965  74.1970 0001061  67.1210 104.4614 12.27065356203345
GLOBALSTAR M019         
1 25677U 99019B   25249.19753608  .00000003  00000+0  97170-3 0  9995
2 25677  51.9863 210.4383 0001251 107.3418 264.5517 12.13876479194984
GLOBALSTAR M044         
1 25678U 99019C   25249.24417326 -.00000019  00000+0  90390-3 0  9991
2 25678  51.9959 171.8104 0005601 194.9744 332.3116 11.90256532180978
GLOBALSTAR M042         
1 25679U 99019D   25249.22256984 -.00000063  00000+0  27390-3 0  9990
2 25679  52.0004 182.1884 0003236  98.0909  70.5644 12.22086751195165
GLOBALSTAR M025         
1 25770U 99031A   25249.23960081 -.00000081  00000+0 -41541-3 0  9992
2 25770  51.9855 331.5106 0001651 275.9076 114.4160 11.22560882490818
GLOBALSTAR M049         
1 25771U 99031B   25248.61326152  .00000021  00000+0  29807-2 0  9991
2 25771  51.9914  11.7641 0003473 140.4438 219.6612 11.12116824126377
GLOBALSTAR M047         
1 25772U 99031C   25249.03910825 -.00000068  00000+0  38486-4 0  9992
2 25772  51.9875   0.0443 0016634  43.6494 316.5625 11.31929366480260
GLOBALSTAR M052         
1 25773U 99031D   25249.01713109 -.00000001  00000+0  21814-2 0  9999
2 25773  51.9848 118.3862 0002435 326.5454 174.3758 11.15060748487527
